NORAD_CAT_ID,OBJECT_NAME,OBJECT_TYPE,EPOCH,MEAN_MOTION,ECCENTRICITY,INCLINATION,RA_OF_ASC_NODE,ARG_OF_PERICENTER,MEAN_ANOMALY,BSTAR,MEAN_MOTION_DOT,MEAN_MOTION_DDOT,TLE_LINE0,TLE_LINE1,TLE_LINE2,SEMIMAJOR_AXIS,PERIOD,APOGEE,PERIGEE,DECAYED
53256.0,STARLINK-4147,PAYLOAD,2023-09-04 09:39:27,15.08831301,0.0001342,53.2172,351.9878,97.861,262.2534,-7.5218e-05,-1.484e-05,0.0,0 STARLINK-4147,1 53256U 22086Q   23247.40240379 -.00001484  00000-0 -75218-4 0  9992,2 53256  53.2172 351.9878 0001342  97.8610 262.2534 15.08831301 62401,6917.907,95.438,540.7,538.844,0.0
53256.0,STARLINK-4147,PAYLOAD,2023-09-04 14:25:36,15.08837215,0.0001331,53.2178,351.0949,92.6588,267.4556,-3.8897e-05,-9.07e-06,0.0,0 STARLINK-4147,1 53256U 22086Q   23247.60111967 -.00000907  00000-0 -38897-4 0  9995,2 53256  53.2178 351.0949 0001331  92.6588 267.4556 15.08837215 62436,6917.889,95.438,540.675,538.833,0.0
53256.0,STARLINK-4147,PAYLOAD,2023-09-05 06:19:28,15.0883354,0.0001387,53.2177,348.1213,92.5055,267.6096,0.00011058,1.472e-05,0.0,0 STARLINK-4147,1 53256U 22086Q   23248.26351957  .00001472  00000-0  11058-3 0  9998,2 53256  53.2177 348.1213 0001387  92.5055 267.6096 15.08833540 62714,6917.9,95.438,540.725,538.806,0.0
53256.0,STARLINK-4147,PAYLOAD,2023-09-05 23:48:41,15.08853536,0.0001423,53.2177,344.8505,94.4108,265.7047,-3.4948e-05,-8.44e-06,0.0,0 STARLINK-4147,1 53256U 22086Q   23248.99215079 -.00000844  00000-0 -34948-4 0  9990,2 53256  53.2177 344.8505 0001423  94.4108 265.7047 15.08853536 62646,6917.839,95.437,540.688,538.72,0.0
53256.0,STARLINK-4147,PAYLOAD,2023-09-06 06:10:14,15.08838118,0.0001341,53.2176,343.6613,91.3862,268.7284,0.00019378,2.797e-05,0.0,0 STARLINK-4147,1 53256U 22086Q   23249.25711705  .00002797  00000-0  19378-3 0  9993,2 53256  53.2176 343.6613 0001341  91.3862 268.7284 15.08838118 62683,6917.886,95.438,540.679,538.823,0.0
53256.0,STARLINK-4147,PAYLOAD,2023-09-07 06:01:01,15.08840554,0.0001213,53.2168,339.2006,91.5186,268.5945,0.00012844,1.757e-05,0.0,0 STARLINK-4147,1 53256U 22086Q   23250.25071613  .00001757  00000-0  12844-3 0  9998,2 53256  53.2168 339.2006 0001213  91.5186 268.5945 15.08840554 63017,6917.879,95.438,540.583,538.905,0.0
53256.0,STARLINK-4147,PAYLOAD,2023-09-08 10:37:58,15.08841047,0.0001345,53.2187,333.8487,90.0977,270.017,3.0293e-05,1.94e-06,0.0,0 STARLINK-4147,1 53256U 22086Q   23251.44303761  .00000194  00000-0  30293-4 0  9995,2 53256  53.2187 333.8487 0001345  90.0977 270.0170 15.08841047 63015,6917.877,95.437,540.673,538.812,0.0
53256.0,STARLINK-4147,PAYLOAD,2023-09-08 12:13:21,15.08842272,0.0001442,53.2185,333.5508,95.2804,264.8352,3.8243e-05,3.21e-06,0.0,0 STARLINK-4147,1 53256U 22086Q   23251.50927633  .00000321  00000-0  38243-4 0  9997,2 53256  53.2185 333.5508 0001442  95.2804 264.8352 15.08842272 63203,6917.873,95.437,540.736,538.741,0.0
53256.0,STARLINK-4147,PAYLOAD,2023-09-08 15:24:07,15.08844626,0.0001401,53.2183,332.954,104.5681,255.5466,5.5196e-05,5.91e-06,0.0,0 STARLINK-4147,1 53256U 22086Q   23251.64175366  .00000591  00000-0  55196-4 0  9995,2 53256  53.2183 332.9540 0001401 104.5681 255.5466 15.08844626 63222,6917.866,95.437,540.7,538.762,0.0
53256.0,STARLINK-4147,PAYLOAD,2023-09-09 13:39:31,15.08838665,0.0001418,53.2181,328.7935,90.2269,269.8885,7.2555e-05,8.67e-06,0.0,0 STARLINK-4147,1 53256U 22086Q   23252.56911885  .00000867  00000-0  72555-4 0  9995,2 53256  53.2181 328.7935 0001418  90.2269 269.8885 15.08838665 63366,6917.884,95.438,540.73,538.769,0.0
53256.0,STARLINK-4147,PAYLOAD,2023-09-09 15:14:54,15.08839564,0.0001391,53.2182,328.495,92.2532,267.8619,7.8113e-05,9.55e-06,0.0,0 STARLINK-4147,1 53256U 22086Q   23252.63535817  .00000955  00000-0  78113-4 0  9994,2 53256  53.2182 328.4950 0001391  92.2532 267.8619 15.08839564 63199,6917.882,95.438,540.709,538.784,0.0
53256.0,STARLINK-4147,PAYLOAD,2023-09-10 11:54:55,15.08846437,0.0001386,53.2177,324.63,89.0635,271.0516,9.279e-05,1.189e-05,0.0,0 STARLINK-4147,1 53256U 22086Q   23253.49647492  .00001189  00000-0  92790-4 0  9999,2 53256  53.2177 324.6300 0001386  89.0635 271.0516 15.08846437 63507,6917.861,95.437,540.685,538.767,0.0
53256.0,STARLINK-4147,PAYLOAD,2023-09-10 21:27:14,15.08841013,0.00014,53.2175,322.8453,88.1217,271.9936,4.7088e-06,-2.13e-06,0.0,0 STARLINK-4147,1 53256U 22086Q   23253.89391978 -.00000213  00000-0  47088-5 0  9997,2 53256  53.2175 322.8453 0001400  88.1217 271.9936 15.08841013 63383,6917.877,95.437,540.711,538.774,0.0
53256.0,STARLINK-4147,PAYLOAD,2023-09-11 10:10:20,15.08835134,0.0001454,53.218,320.4677,98.5871,261.5286,2.1071e-06,-2.54e-06,0.0,0 STARLINK-4147,1 53256U 22086Q   23254.42384602 -.00000254  00000-0  21071-5 0  9992,2 53256  53.2180 320.4677 0001454  98.5871 261.5286 15.08835134 63460,6917.895,95.438,540.766,538.754,0.0
53256.0,STARLINK-4147,PAYLOAD,2023-09-11 11:45:43,15.0883661,0.0001361,53.2175,320.1707,98.8773,261.2373,1.816e-05,1e-08,0.0,0 STARLINK-4147,1 53256U 22086Q   23254.49008457  .00000001  00000-0  18160-4 0  9993,2 53256  53.2175 320.1707 0001361  98.8773 261.2373 15.08836610 63651,6917.891,95.438,540.697,538.814,0.0
53256.0,STARLINK-4147,PAYLOAD,2023-09-12 10:01:06,15.08845997,0.0001502,53.2183,316.0078,103.5106,256.6053,5.3247e-05,5.6e-06,0.0,0 STARLINK-4147,1 53256U 22086Q   23255.41743856  .00000560  00000-0  53247-4 0  9990,2 53256  53.2183 316.0078 0001502 103.5106 256.6053 15.08845997 63613,6917.862,95.437,540.766,538.688,0.0
53256.0,STARLINK-4147,PAYLOAD,2023-09-12 11:36:29,15.08847835,0.0001372,53.2179,315.7104,97.6848,262.43,7.6644e-05,9.32e-06,0.0,0 STARLINK-4147,1 53256U 22086Q   23255.48367675  .00000932  00000-0  76644-4 0  9997,2 53256  53.2179 315.7104 0001372  97.6848 262.4300 15.08847835 63809,6917.856,95.437,540.671,538.772,0.0
53256.0,STARLINK-4147,PAYLOAD,2023-09-13 11:27:16,15.08851295,0.000141,53.2175,311.2484,97.2228,262.8925,0.00018511,2.66e-05,0.0,0 STARLINK-4147,1 53256U 22086Q   23256.47727146  .00002660  00000-0  18511-3 0  9998,2 53256  53.2175 311.2484 0001410  97.2228 262.8925 15.08851295 63956,6917.846,95.437,540.686,538.735,0.0
53256.0,STARLINK-4147,PAYLOAD,2023-09-13 20:59:36,15.08835174,0.0001576,53.2169,309.4649,81.5405,278.5766,2.0767e-05,4.2e-07,0.0,0 STARLINK-4147,1 53256U 22086Q   23256.87472747  .00000042  00000-0  20767-4 0  9995,2 53256  53.2169 309.4649 0001576  81.5405 278.5766 15.08835174 64010,6917.895,95.438,540.85,538.67,0.0
53256.0,STARLINK-4147,PAYLOAD,2023-09-14 03:21:09,15.08818419,0.0001359,53.2159,308.2749,84.201,275.9137,-0.0002914,-4.92e-05,0.0,0 STARLINK-4147,1 53256U 22086Q   23257.13969331 -.00004920  00000-0 -29140-3 0  9999,2 53256  53.2159 308.2749 0001359  84.2010 275.9137 15.08818419 63877,6917.946,95.439,540.752,538.871,0.0
53256.0,STARLINK-4147,PAYLOAD,2023-09-14 12:53:28,15.08825612,0.0001359,53.2164,306.4899,86.5356,273.5791,-9.4419e-05,-1.79e-05,0.0,0 STARLINK-4147,1 53256U 22086Q   23257.53714103 -.00001790  00000-0 -94419-4 0  9992,2 53256  53.2164 306.4899 0001359  86.5356 273.5791 15.08825612 64118,6917.924,95.438,540.73,538.849,0.0
53256.0,STARLINK-4147,PAYLOAD,2023-09-14 20:50:24,15.08830107,0.0001335,53.2168,305.0039,84.5056,275.6089,-2.5204e-05,-6.89e-06,0.0,0 STARLINK-4147,1 53256U 22086Q   23257.86833866 -.00000689  00000-0 -25204-4 0  9998,2 53256  53.2168 305.0039 0001335  84.5056 275.6089 15.08830107 64165,6917.911,95.438,540.699,538.852,0.0
53256.0,STARLINK-4147,PAYLOAD,2023-09-15 03:11:56,15.08830136,0.0001402,53.2155,303.8139,82.8401,277.275,2.4852e-05,1.08e-06,0.0,0 STARLINK-4147,1 53256U 22086Q   23258.13329807  .00000108  00000-0  24852-4 0  9996,2 53256  53.2155 303.8139 0001402  82.8401 277.2750 15.08830136 64028,6917.911,95.438,540.745,538.806,0.0
53256.0,STARLINK-4147,PAYLOAD,2023-09-15 09:33:29,15.08840484,0.0001344,53.2154,302.6246,85.6966,274.418,0.00010784,1.429e-05,0.0,0 STARLINK-4147,1 53256U 22086Q   23258.39825511  .00001429  00000-0  10784-3 0  9992,2 53256  53.2154 302.6246 0001344  85.6966 274.4180 15.08840484 64062,6917.879,95.438,540.674,538.814,0.0
53256.0,STARLINK-4147,PAYLOAD,2023-09-16 09:24:16,15.08862445,0.0001505,53.2152,298.1645,74.3474,285.7684,0.00076033,0.00011841,0.0,0 STARLINK-4147,1 53256U 22086Q   23259.39185374  .00011841  00000-0  76033-3 0  9997,2 53256  53.2152 298.1645 0001505  74.3474 285.7684 15.08862445 64391,6917.812,95.436,540.718,538.636,0.0
53256.0,STARLINK-4147,PAYLOAD,2023-09-17 02:53:29,15.08852096,0.0001942,53.217,294.8924,101.5794,258.5417,0.000172,2.451e-05,0.0,0 STARLINK-4147,1 53256U 22086Q   23260.12048582  .00002451  00000-0  17200-3 0  9997,2 53256  53.2170 294.8924 0001942 101.5794 258.5417 15.08852096 64323,6917.843,95.437,541.052,538.365,0.0
53256.0,STARLINK-4147,PAYLOAD,2023-09-17 09:15:02,15.08848488,0.000172,53.2166,293.7027,97.5008,262.618,3.8325e-05,3.22e-06,0.0,0 STARLINK-4147,1 53256U 22086Q   23260.38544878  .00000322  00000-0  38325-4 0  9991,2 53256  53.2166 293.7027 0001720  97.5008 262.6180 15.08848488 64543,6917.854,95.437,540.909,538.53,0.0
53256.0,STARLINK-4147,PAYLOAD,2023-09-18 01:08:55,15.08816807,0.0001883,53.2162,290.7288,99.6059,260.5146,0.00080127,0.00012479,0.0,0 STARLINK-4147,1 53256U 22086Q   23261.04785904  .00012479  00000-0  80127-3 0  9994,2 53256  53.2162 290.7288 0001883  99.6059 260.5146 15.08816807 64464,6917.951,95.439,541.119,538.514,0.0
53256.0,STARLINK-4147,PAYLOAD,2023-09-18 09:05:49,15.08848557,0.0001626,53.2172,289.2422,95.9502,264.1676,1.6141e-05,-3.1e-07,0.0,0 STARLINK-4147,1 53256U 22086Q   23261.37904687 -.00000031  00000-0  16141-4 0  9999,2 53256  53.2172 289.2422 0001626  95.9502 264.1676 15.08848557 64516,6917.854,95.437,540.844,538.594,0.0
53256.0,STARLINK-4147,PAYLOAD,2023-09-18 18:38:08,15.08843865,0.0001558,53.2168,287.4579,93.411,266.7061,2.8509e-05,1.66e-06,0.0,0 STARLINK-4147,1 53256U 22086Q   23261.77648810  .00000166  00000-0  28509-4 0  9995,2 53256  53.2168 287.4579 0001558  93.4110 266.7061 15.08843865 64755,6917.869,95.437,540.811,538.656,0.0
